NORAD_CAT_ID,OBJECT_NAME,OBJECT_TYPE,EPOCH,MEAN_MOTION,ECCENTRICITY,INCLINATION,RA_OF_ASC_NODE,ARG_OF_PERICENTER,MEAN_ANOMALY,BSTAR,MEAN_MOTION_DOT,MEAN_MOTION_DDOT,TLE_LINE0,TLE_LINE1,TLE_LINE2,SEMIMAJOR_AXIS,PERIOD,APOGEE,PERIGEE,DECAYED
50815.0,STARLINK-3234,PAYLOAD,2023-04-06 22:15:35,15.08849285,8.74e-05,53.2145,282.4874,91.8791,268.2301,0.00044055,6.732e-05,0.0,0 STARLINK-3234,1 50815U 22001N   23096.92749108  .00006732  00000-0  44055-3 0  9993,2 50815  53.2145 282.4874 0000874  91.8791 268.2301 15.08849285 69210,6917.852,95.437,540.322,539.112,0.0
50815.0,STARLINK-3234,PAYLOAD,2023-04-07 12:34:03,15.08841639,8.75e-05,53.2146,279.8101,81.6835,278.4256,0.00042414,6.469e-05,0.0,0 STARLINK-3234,1 50815U 22001N   23097.52365395  .00006469  00000-0  42414-3 0  9996,2 50815  53.2146 279.8101 0000875  81.6835 278.4256 15.08841639 70579,6917.875,95.437,540.346,539.135,0.0
50815.0,STARLINK-3234,PAYLOAD,2023-04-08 04:27:55,15.08834986,9.17e-05,53.2152,276.8366,92.8445,267.2652,3.2633e-05,2.32e-06,0.0,0 STARLINK-3234,1 50815U 22001N   23098.18605501  .00000232  00000-0  32633-4 0  9990,2 50815  53.2152 276.8366 0000917  92.8445 267.2652 15.08834986 70678,6917.896,95.438,540.395,539.126,0.0
50815.0,STARLINK-3234,PAYLOAD,2023-04-08 12:24:50,15.0883971,9.11e-05,53.2149,275.3496,84.0011,276.1085,0.00033327,5.02e-05,0.0,0 STARLINK-3234,1 50815U 22001N   23098.51725596  .00005020  00000-0  33327-3 0  9994,2 50815  53.2149 275.3496 0000911  84.0011 276.1085 15.08839710 69451,6917.881,95.438,540.376,539.116,0.0
50815.0,STARLINK-3234,PAYLOAD,2023-04-08 20:21:46,15.08851692,9.18e-05,53.2151,273.8629,82.7804,277.3292,0.00081546,0.00012718,0.0,0 STARLINK-3234,1 50815U 22001N   23098.84845460  .00012718  00000-0  81546-3 0  9991,2 50815  53.2151 273.8629 0000918  82.7804 277.3292 15.08851692 70770,6917.845,95.437,540.345,539.075,0.0
50815.0,STARLINK-3234,PAYLOAD,2023-04-09 04:18:42,15.08840003,0.0001046,53.2151,272.3761,71.7651,288.3455,0.00075077,0.00011681,0.0,0 STARLINK-3234,1 50815U 22001N   23099.17965880  .00011681  00000-0  75077-3 0  9997,2 50815  53.2151 272.3761 0001046  71.7651 288.3455 15.08840003 70825,6917.88,95.438,540.469,539.022,0.0
50815.0,STARLINK-3234,PAYLOAD,2023-04-09 12:15:38,15.0884212,8.91e-05,53.215,270.8892,93.1809,266.9285,0.0007206,0.000112,0.0,0 STARLINK-3234,1 50815U 22001N   23099.51085825  .00011200  00000-0  72060-3 0  9993,2 50815  53.2150 270.8892 0000891  93.1809 266.9285 15.08842120 69601,6917.874,95.437,540.355,539.123,0.0
50815.0,STARLINK-3234,PAYLOAD,2023-04-09 21:47:56,15.08854347,8.63e-05,53.2149,269.1054,91.9959,268.1132,0.0012941,0.00020376,0.0,0 STARLINK-3234,1 50815U 22001N   23099.90829596  .00020376  00000-0  12941-2 0  9992,2 50815  53.2149 269.1054 0000863  91.9959 268.1132 15.08854347 69666,6917.837,95.437,540.299,539.105,0.0
50815.0,STARLINK-3234,PAYLOAD,2023-04-10 07:20:15,15.08850854,9.06e-05,53.2146,267.3207,100.695,259.4145,0.0010857,0.00017038,0.0,0 STARLINK-3234,1 50815U 22001N   23100.30573719  .00017038  00000-0  10857-2 0  9997,2 50815  53.2146 267.3207 0000906 100.6950 259.4145 15.08850854 70994,6917.847,95.437,540.339,539.085,0.0
50815.0,STARLINK-3234,PAYLOAD,2023-04-10 13:41:48,15.08854681,8.6e-05,53.2146,266.1315,101.7519,258.357,0.0013171,0.00020744,0.0,0 STARLINK-3234,1 50815U 22001N   23100.57069603  .00020744  00000-0  13171-2 0  9998,2 50815  53.2146 266.1315 0000860 101.7519 258.3570 15.08854681 69768,6917.836,95.437,540.295,539.106,0.0
50815.0,STARLINK-3234,PAYLOAD,2023-04-10 20:03:20,15.08863295,8.16e-05,53.2147,264.9424,95.2452,264.8633,0.0015419,0.00024352,0.0,0 STARLINK-3234,1 50815U 22001N   23100.83565276  .00024352  00000-0  15419-2 0  9990,2 50815  53.2147 264.9424 0000816  95.2452 264.8633 15.08863295 69808,6917.809,95.436,540.239,539.11,0.0
50815.0,STARLINK-3234,PAYLOAD,2023-04-11 04:00:15,15.08845525,1.9e-05,53.2146,263.4554,148.8498,211.2506,0.0001396,1.935e-05,0.0,0 STARLINK-3234,1 50815U 22001N   23101.16685113  .00001935  00000-0  13960-3 0  9992,2 50815  53.2146 263.4554 0000190 148.8498 211.2506 15.08845525 71124,6917.864,95.437,539.86,539.597,0.0
50815.0,STARLINK-3234,PAYLOAD,2023-04-11 13:32:34,15.08848317,8.04e-05,53.2145,261.6712,90.7026,269.4059,0.0010109,0.00015841,0.0,0 STARLINK-3234,1 50815U 22001N   23101.56429395  .00015841  00000-0  10109-2 0  9996,2 50815  53.2145 261.6712 0000804  90.7026 269.4059 15.08848317 69917,6917.855,95.437,540.276,539.164,0.0
50815.0,STARLINK-3234,PAYLOAD,2023-04-11 19:54:07,15.08857041,9.3e-05,53.2145,260.4819,84.0777,276.0321,0.0015864,0.00025062,0.0,0 STARLINK-3234,1 50815U 22001N   23101.82925214  .00025062  00000-0  15864-2 0  9995,2 50815  53.2145 260.4819 0000930  84.0777 276.0321 15.08857041 69955,6917.828,95.436,540.337,539.05,0.0
50815.0,STARLINK-3234,PAYLOAD,2023-04-12 10:12:35,15.08843809,0.0001402,53.2147,257.8065,83.797,276.3182,0.00052501,8.078e-05,0.0,0 STARLINK-3234,1 50815U 22001N   23102.42541550  .00008078  00000-0  52501-3 0  9997,2 50815  53.2147 257.8065 0001402  83.7970 276.3182 15.08843809 70043,6917.869,95.437,540.704,538.764,0.0
50815.0,STARLINK-3234,PAYLOAD,2023-04-13 10:03:23,15.08840662,0.0001942,53.2128,253.349,65.243,294.8764,9.8064e-08,-2.87e-06,0.0,0 STARLINK-3234,1 50815U 22001N   23103.41901777 -.00000287  00000-0  98064-7 0  9991,2 50815  53.2128 253.3490 0001942  65.2430 294.8764 15.08840662 70191,6917.878,95.438,541.087,538.4,0.0
50815.0,STARLINK-3234,PAYLOAD,2023-04-13 19:35:41,15.08848366,0.0001307,53.2155,251.5623,81.438,278.676,0.00018961,2.732e-05,0.0,0 STARLINK-3234,1 50815U 22001N   23103.81645387  .00002732  00000-0  18961-3 0  9997,2 50815  53.2155 251.5623 0001307  81.4380 278.6760 15.08848366 71521,6917.855,95.437,540.624,538.816,0.0
50815.0,STARLINK-3234,PAYLOAD,2023-04-14 08:18:47,15.08838551,8.94e-05,53.2156,249.1834,83.9332,276.1762,0.0005901,9.116e-05,0.0,0 STARLINK-3234,1 50815U 22001N   23104.34637867  .00009116  00000-0  59010-3 0  9993,2 50815  53.2156 249.1834 0000894  83.9332 276.1762 15.08838551 71602,6917.885,95.438,540.368,539.131,0.0
50815.0,STARLINK-3234,PAYLOAD,2023-04-14 09:54:09,15.08848195,0.0001124,53.2155,248.886,80.6887,279.4232,0.00042411,6.47e-05,0.0,0 STARLINK-3234,1 50815U 22001N   23104.41261439  .00006470  00000-0  42411-3 0  9996,2 50815  53.2155 248.8860 0001124  80.6887 279.4232 15.08848195 70345,6917.855,95.437,540.498,538.943,0.0
50815.0,STARLINK-3234,PAYLOAD,2023-04-15 12:55:42,15.08840655,0.000119,53.2161,243.8306,93.3973,266.7156,-5.0715e-05,-1.095e-05,0.0,0 STARLINK-3234,1 50815U 22001N   23105.53869193 -.00001095  00000-0 -50715-4 0  9998,2 50815  53.2161 243.8306 0001190  93.3973 266.7156 15.08840655 70518,6917.878,95.438,540.567,538.92,0.0
50815.0,STARLINK-3234,PAYLOAD,2023-04-15 16:06:29,15.08845607,0.0001042,53.2152,243.2351,88.7899,271.3213,8.511e-05,1.067e-05,0.0,0 STARLINK-3234,1 50815U 22001N   23105.67117001  .00001067  00000-0  85110-4 0  9991,2 50815  53.2152 243.2351 0001042  88.7899 271.3213 15.08845607 70533,6917.863,95.437,540.449,539.007,0.0
50815.0,STARLINK-3234,PAYLOAD,2023-04-16 12:46:30,15.08834668,0.0001533,53.216,239.3706,99.3709,260.7457,5.426e-06,-2.02e-06,0.0,0 STARLINK-3234,1 50815U 22001N   23106.53229478 -.00000202  00000-0  54260-5 0  9993,2 50815  53.2160 239.3706 0001533  99.3709 260.7457 15.08834668 70666,6917.897,95.438,540.822,538.701,0.0
50815.0,STARLINK-3234,PAYLOAD,2023-04-16 14:21:53,15.08834085,0.0001469,53.2162,239.0734,99.8923,260.2235,2.5042e-05,1.11e-06,0.0,0 STARLINK-3234,1 50815U 22001N   23106.59853548  .00000111  00000-0  25042-4 0  9993,2 50815  53.2162 239.0734 0001469  99.8923 260.2235 15.08834085 71941,6917.898,95.438,540.78,538.747,0.0
50815.0,STARLINK-3234,PAYLOAD,2023-04-17 12:37:18,15.08831322,0.0001505,53.217,234.9108,99.907,260.2092,0.00010126,1.324e-05,0.0,0 STARLINK-3234,1 50815U 22001N   23107.52590509  .00001324  00000-0  10126-3 0  9995,2 50815  53.2170 234.9108 0001505  99.9070 260.2092 15.08831322 72082,6917.907,95.438,540.813,538.731,0.0
50815.0,STARLINK-3234,PAYLOAD,2023-04-17 15:48:04,15.08834101,0.0001415,53.2165,234.3161,93.3041,266.8113,0.00015421,2.167e-05,0.0,0 STARLINK-3234,1 50815U 22001N   23107.65838474  .00002167  00000-0  15421-3 0  9994,2 50815  53.2165 234.3161 0001415  93.3041 266.8113 15.08834101 70830,6917.898,95.438,540.742,538.785,0.0
50815.0,STARLINK-3234,PAYLOAD,2023-04-18 07:41:56,15.08832918,0.0001253,53.2162,231.3418,91.1997,268.9139,0.00013386,1.843e-05,0.0,0 STARLINK-3234,1 50815U 22001N   23108.32078817  .00001843  00000-0  13386-3 0  9994,2 50815  53.2162 231.3418 0001253  91.1997 268.9139 15.08832918 70931,6917.902,95.438,540.634,538.9,0.0
50815.0,STARLINK-3234,PAYLOAD,2023-04-18 17:14:14,15.08843655,0.0001371,53.215,229.5561,85.0056,275.1092,0.00027519,4.095e-05,0.0,0 STARLINK-3234,1 50815U 22001N   23108.71822492  .00004095  00000-0  27519-3 0  9998,2 50815  53.2150 229.5561 0001371  85.0056 275.1092 15.08843655 70999,6917.869,95.437,540.683,538.786,0.0
50815.0,STARLINK-3234,PAYLOAD,2023-04-19 12:18:52,15.08838666,0.000149,53.2156,225.9896,72.2913,287.8241,0.00017157,2.444e-05,0.0,0 STARLINK-3234,1 50815U 22001N   23109.51311045  .00002444  00000-0  17157-3 0  9997,2 50815  53.2156 225.9896 0001490  72.2913 287.8241 15.08838666 71115,6917.884,95.438,540.78,538.719,0.0
50815.0,STARLINK-3234,PAYLOAD,2023-04-19 15:29:38,15.08846208,0.0001372,53.2159,225.3938,73.582,286.5323,0.00011141,1.486e-05,0.0,0 STARLINK-3234,1 50815U 22001N   23109.64558550  .00001486  00000-0  11141-3 0  9997,2 50815  53.2159 225.3938 0001372  73.5820 286.5323 15.08846208 71139,6917.861,95.437,540.676,538.777,0.0
50815.0,STARLINK-3234,PAYLOAD,2023-04-20 07:23:30,15.08840037,0.0001508,53.2151,222.4214,78.0075,282.1086,5.1648e-05,5.34e-06,0.0,0 STARLINK-3234,1 50815U 22001N   23110.30798884  .00000534  00000-0  51648-4 0  9998,2 50815  53.2151 222.4214 0001508  78.0075 282.1086 15.08840037 71232,6917.88,95.438,540.788,538.702,0.0
